[{"OBJECT_NAME":"STARLINK-5633","OBJECT_ID":"2023-014V","EPOCH":"2026-03-09T11:19:05.752704","MEAN_MOTION":14.98332032,"ECCENTRICITY":0.00035241,"INCLINATION":69.9989,"RA_OF_ASC_NODE":84.8422,"ARG_OF_PERICENTER":267.6974,"MEAN_ANOMALY":92.3782,"EPHEMERIS_TYPE":0,"CLASSIFICATION_TYPE":"U","NORAD_CAT_ID":55410,"ELEMENT_SET_NO":999,"REV_AT_EPOCH":17153,"BSTAR":-3.074239e-6,"MEAN_MOTION_DOT":-1.3e-6,"MEAN_MOTION_DDOT":0},{"OBJECT_NAME":"HAWK-10A","OBJECT_ID":"2024-149CA","EPOCH":"2026-03-09T19:11:42.074592","MEAN_MOTION":14.96174213,"ECCENTRICITY":0.00043334,"INCLINATION":97.6943,"RA_OF_ASC_NODE":146.4192,"ARG_OF_PERICENTER":57.1994,"MEAN_ANOMALY":302.9645,"EPHEMERIS_TYPE":0,"CLASSIFICATION_TYPE":"U","NORAD_CAT_ID":60540,"ELEMENT_SET_NO":999,"REV_AT_EPOCH":8512,"BSTAR":0.00019454,"MEAN_MOTION_DOT":2.135e-5,"MEAN_MOTION_DDOT":0}]
